{
  "type": "FeatureCollection",
  "features": [
    {
      "type": "Feature",
      "properties": {
        "norad_id": 29843,
        "name": "FENGYUN 1C DEB",
        "group": "fengyun-1c-debris",
        "lat": 76.99108148615815,
        "lon": 53.01915696654531,
        "alt_km": 926.7726937739371,
        "timestamp": "2025-12-16T23:36:36.468129+00:00",
        "meta_object_name": "FENGYUN 1C DEB",
        "meta_object_id": "1999-025EM",
        "meta_epoch": "2025-12-16T08:36:27.253728",
        "meta_mean_motion": 14.28566656,
        "meta_eccentricity": 0.01916871,
        "meta_inclination": 99.0371,
        "meta_ra_of_asc_node": 188.8311,
        "meta_arg_of_pericenter": 280.2104,
        "meta_mean_anomaly": 206.1867,
        "meta_ephemeris_type": 0,
        "meta_classification_type": "U",
        "meta_norad_cat_id": 29843,
        "meta_element_set_no": 999,
        "meta_rev_at_epoch": 98333,
        "meta_bstar": 0.00018206545,
        "meta_mean_motion_dot": 5.02e-06,
        "meta_mean_motion_ddot": 0,
        "tle_line1": "1 29843U 99025EM  25350.35864877  .00000502  00000+0  18207-3 0  9991",
        "tle_line2": "2 29843  99.0371 188.8311 0191687 280.2104 206.1867 14.28566656983331"
      },
      "geometry": {
        "type": "Point",
        "coordinates": [
          53.01915696654531,
          76.99108148615815
        ]
      }
    },
    {
      "type": "Feature",
      "properties": {
        "norad_id": 29844,
        "name": "FENGYUN 1C DEB",
        "group": "fengyun-1c-debris",
        "lat": -15.517323589465875,
        "lon": 69.95039100351411,
        "alt_km": 697.8243079393942,
        "timestamp": "2025-12-16T23:36:36.468140+00:00",
        "meta_object_name": "FENGYUN 1C DEB",
        "meta_object_id": "1999-025EN",
        "meta_epoch": "2025-12-16T05:56:22.640928",
        "meta_mean_motion": 14.31991857,
        "meta_eccentricity": 0.01682537,
        "meta_inclination": 98.9367,
        "meta_ra_of_asc_node": 251.696,
        "meta_arg_of_pericenter": 156.8311,
        "meta_mean_anomaly": 204.0572,
        "meta_ephemeris_type": 0,
        "meta_classification_type": "U",
        "meta_norad_cat_id": 29844,
        "meta_element_set_no": 999,
        "meta_rev_at_epoch": 98391,
        "meta_bstar": 0.00036281586,
        "meta_mean_motion_dot": 1.088e-05,
        "meta_mean_motion_ddot": 0,
        "tle_line1": "1 29844U 99025EN  25350.24748427  .00001088  00000+0  36282-3 0  9995",
        "tle_line2": "2 29844  98.9367 251.6960 0168253 156.8311 204.0572 14.31991857983918"
      },
      "geometry": {
        "type": "Point",
        "coordinates": [
          69.95039100351411,
          -15.517323589465875
        ]
      }
    },
    {
      "type": "Feature",
      "properties": {
        "norad_id": 29845,
        "name": "FENGYUN 1C DEB",
        "group": "fengyun-1c-debris",
        "lat": 0.7383924627988663,
        "lon": -8.895761180854407,
        "alt_km": 832.2788475331381,
        "timestamp": "2025-12-16T23:36:36.468151+00:00",
        "meta_object_name": "FENGYUN 1C DEB",
        "meta_object_id": "1999-025EP",
        "meta_epoch": "2025-12-16T06:50:42.370368",
        "meta_mean_motion": 14.26493207,
        "meta_eccentricity": 0.00780152,
        "meta_inclination": 98.522,
        "meta_ra_of_asc_node": 350.535,
        "meta_arg_of_pericenter": 120.919,
        "meta_mean_anomaly": 255.4998,
        "meta_ephemeris_type": 0,
        "meta_classification_type": "U",
        "meta_norad_cat_id": 29845,
        "meta_element_set_no": 999,
        "meta_rev_at_epoch": 98160,
        "meta_bstar": 0.00053063677,
        "meta_mean_motion_dot": 1.278e-05,
        "meta_mean_motion_ddot": 0,
        "tle_line1": "1 29845U 99025EP  25350.28521262  .00001278  00000+0  53064-3 0  9994",
        "tle_line2": "2 29845  98.5220 350.5350 0078015 120.9190 255.4998 14.26493207981604"
      },
      "geometry": {
        "type": "Point",
        "coordinates": [
          -8.895761180854407,
          0.7383924627988663
        ]
      }
    },
    {
      "type": "Feature",
      "properties": {
        "norad_id": 29846,
        "name": "FENGYUN 1C DEB",
        "group": "fengyun-1c-debris",
        "lat": -77.39059739416128,
        "lon": 75.61544853311281,
        "alt_km": 776.7931333188608,
        "timestamp": "2025-12-16T23:36:36.468161+00:00",
        "meta_object_name": "FENGYUN 1C DEB",
        "meta_object_id": "1999-025EQ",
        "meta_epoch": "2025-12-16T08:50:01.879584",
        "meta_mean_motion": 14.19094459,
        "meta_eccentricity": 0.00837945,
        "meta_inclination": 98.6547,
        "meta_ra_of_asc_node": 32.1027,
        "meta_arg_of_pericenter": 293.7305,
        "meta_mean_anomaly": 82.1351,
        "meta_ephemeris_type": 0,
        "meta_classification_type": "U",
        "meta_norad_cat_id": 29846,
        "meta_element_set_no": 999,
        "meta_rev_at_epoch": 97911,
        "meta_bstar": 0.00014096317,
        "meta_mean_motion_dot": 2.61e-06,
        "meta_mean_motion_ddot": 0,
        "tle_line1": "1 29846U 99025EQ  25350.36807731  .00000261  00000+0  14096-3 0  9995",
        "tle_line2": "2 29846  98.6547  32.1027 0083794 293.7305  82.1351 14.19094459979118"
      },
      "geometry": {
        "type": "Point",
        "coordinates": [
          75.61544853311281,
          -77.39059739416128
        ]
      }
    },
    {
      "type": "Feature",
      "properties": {
        "norad_id": 29847,
        "name": "FENGYUN 1C DEB",
        "group": "fengyun-1c-debris",
        "lat": -77.41251806754512,
        "lon": 31.384158489010044,
        "alt_km": 909.4676921856826,
        "timestamp": "2025-12-16T23:36:36.468172+00:00",
        "meta_object_name": "FENGYUN 1C DEB",
        "meta_object_id": "1999-025ER",
        "meta_epoch": "2025-12-16T05:27:15.054912",
        "meta_mean_motion": 14.03001744,
        "meta_eccentricity": 0.00850357,
        "meta_inclination": 98.9028,
        "meta_ra_of_asc_node": 346.0604,
        "meta_arg_of_pericenter": 29.188,
        "meta_mean_anomaly": 31.8706,
        "meta_ephemeris_type": 0,
        "meta_classification_type": "U",
        "meta_norad_cat_id": 29847,
        "meta_element_set_no": 999,
        "meta_rev_at_epoch": 96784,
        "meta_bstar": 0.00038632132,
        "meta_mean_motion_dot": 5.76e-06,
        "meta_mean_motion_ddot": 0,
        "tle_line1": "1 29847U 99025ER  25350.22725758  .00000576  00000+0  38632-3 0  9990",
        "tle_line2": "2 29847  98.9028 346.0604 0085035  29.1880  31.8706 14.03001744967843"
      },
      "geometry": {
        "type": "Point",
        "coordinates": [
          31.384158489010044,
          -77.41251806754512
        ]
      }
    },
    {
      "type": "Feature",
      "properties": {
        "norad_id": 29848,
        "name": "FENGYUN 1C DEB",
        "group": "fengyun-1c-debris",
        "lat": -5.833827528553798,
        "lon": -141.85109265705015,
        "alt_km": 799.2335949018743,
        "timestamp": "2025-12-16T23:36:36.468182+00:00",
        "meta_object_name": "FENGYUN 1C DEB",
        "meta_object_id": "1999-025ES",
        "meta_epoch": "2025-12-16T03:55:49.603584",
        "meta_mean_motion": 14.20589487,
        "meta_eccentricity": 0.01168613,
        "meta_inclination": 98.2489,
        "meta_ra_of_asc_node": 216.5342,
        "meta_arg_of_pericenter": 285.2511,
        "meta_mean_anomaly": 196.5848,
        "meta_ephemeris_type": 0,
        "meta_classification_type": "U",
        "meta_norad_cat_id": 29848,
        "meta_element_set_no": 999,
        "meta_rev_at_epoch": 97166,
        "meta_bstar": 0.00098624766,
        "meta_mean_motion_dot": 2.232e-05,
        "meta_mean_motion_ddot": 0,
        "tle_line1": "1 29848U 99025ES  25350.16376856  .00002232  00000+0  98625-3 0  9994",
        "tle_line2": "2 29848  98.2489 216.5342 0116861 285.2511 196.5848 14.20589487971661"
      },
      "geometry": {
        "type": "Point",
        "coordinates": [
          -141.85109265705015,
          -5.833827528553798
        ]
      }
    },
    {
      "type": "Feature",
      "properties": {
        "norad_id": 29849,
        "name": "FENGYUN 1C DEB",
        "group": "fengyun-1c-debris",
        "lat": -40.10199550668235,
        "lon": 83.01001893083182,
        "alt_km": 866.1765511302056,
        "timestamp": "2025-12-16T23:36:36.468192+00:00",
        "meta_object_name": "FENGYUN 1C DEB",
        "meta_object_id": "1999-025ET",
        "meta_epoch": "2025-12-16T05:15:25.112160",
        "meta_mean_motion": 14.04902517,
        "meta_eccentricity": 0.00804678,
        "meta_inclination": 99.0116,
        "meta_ra_of_asc_node": 74.5707,
        "meta_arg_of_pericenter": 34.8924,
        "meta_mean_anomaly": 19.8437,
        "meta_ephemeris_type": 0,
        "meta_classification_type": "U",
        "meta_norad_cat_id": 29849,
        "meta_element_set_no": 999,
        "meta_rev_at_epoch": 96419,
        "meta_bstar": 0.00066884402,
        "meta_mean_motion_dot": 1.062e-05,
        "meta_mean_motion_ddot": 0,
        "tle_line1": "1 29849U 99025ET  25350.21904065  .00001062  00000+0  66884-3 0  9992",
        "tle_line2": "2 29849  99.0116  74.5707 0080467  34.8924  19.8437 14.04902517964199"
      },
      "geometry": {
        "type": "Point",
        "coordinates": [
          83.01001893083182,
          -40.10199550668235
        ]
      }
    }
  ]
}